[{"OBJECT_NAME":"ONEWEB-0378","OBJECT_ID":"2021-090AB","EPOCH":"2025-12-24T06:16:15.563136","MEAN_MOTION":13.20771443,"ECCENTRICITY":0.0001913,"INCLINATION":87.9209,"RA_OF_ASC_NODE":309.3369,"ARG_OF_PERICENTER":83.2584,"MEAN_ANOMALY":276.8767,"EPHEMERIS_TYPE":0,"CLASSIFICATION_TYPE":"U","NORAD_CAT_ID":49304,"ELEMENT_SET_NO":999,"REV_AT_EPOCH":20669,"BSTAR":0.00018124372,"MEAN_MOTION_DOT":8.7e-7,"MEAN_MOTION_DDOT":0},{"OBJECT_NAME":"ONEWEB-0379","OBJECT_ID":"2021-090AC","EPOCH":"2025-12-24T04:41:14.975808","MEAN_MOTION":13.14502365,"ECCENTRICITY":0.00019039,"INCLINATION":87.9005,"RA_OF_ASC_NODE":324.5712,"ARG_OF_PERICENTER":82.5041,"MEAN_ANOMALY":277.6305,"EPHEMERIS_TYPE":0,"CLASSIFICATION_TYPE":"U","NORAD_CAT_ID":49305,"ELEMENT_SET_NO":999,"REV_AT_EPOCH":20457,"BSTAR":0.0001825035,"MEAN_MOTION_DOT":8.0e-7,"MEAN_MOTION_DDOT":0},{"OBJECT_NAME":"ONEWEB-0380","OBJECT_ID":"2021-090AD","EPOCH":"2025-12-24T04:47:58.203744","MEAN_MOTION":13.19725132,"ECCENTRICITY":0.00017968,"INCLINATION":87.9202,"RA_OF_ASC_NODE":339.7925,"ARG_OF_PERICENTER":92.6359,"MEAN_ANOMALY":267.498,"EPHEMERIS_TYPE":0,"CLASSIFICATION_TYPE":"U","NORAD_CAT_ID":49306,"ELEMENT_SET_NO":999,"REV_AT_EPOCH":20334,"BSTAR":-4.6657972e-5,"MEAN_MOTION_DOT":-6.0e-8,"MEAN_MOTION_DDOT":0},{"OBJECT_NAME":"ONEWEB-0381","OBJECT_ID":"2021-090AE","EPOCH":"2025-12-24T03:50:36.327552","MEAN_MOTION":13.20771488,"ECCENTRICITY":0.00019108,"INCLINATION":87.9218,"RA_OF_ASC_NODE":309.3458,"ARG_OF_PERICENTER":85.4916,"MEAN_ANOMALY":274.6435,"EPHEMERIS_TYPE":0,"CLASSIFICATION_TYPE":"U","NORAD_CAT_ID":49307,"ELEMENT_SET_NO":999,"REV_AT_EPOCH":20672,"BSTAR":9.173769e-6,"MEAN_MOTION_DOT":1.7e-7,"MEAN_MOTION_DDOT":0},{"OBJECT_NAME":"ONEWEB-0382","OBJECT_ID":"2021-090AF","EPOCH":"2025-12-24T07:10:35.557824","MEAN_MOTION":13.20772292,"ECCENTRICITY":0.00021364,"INCLINATION":87.9214,"RA_OF_ASC_NODE":309.3143,"ARG_OF_PERICENTER":85.8996,"MEAN_ANOMALY":274.2381,"EPHEMERIS_TYPE":0,"CLASSIFICATION_TYPE":"U","NORAD_CAT_ID":49308,"ELEMENT_SET_NO":999,"REV_AT_EPOCH":20673,"BSTAR":0.0011426115,"MEAN_MOTION_DOT":4.78e-6,"MEAN_MOTION_DDOT":0},{"OBJECT_NAME":"ONEWEB-0383","OBJECT_ID":"2021-090AG","EPOCH":"2025-12-24T04:32:05.696448","MEAN_MOTION":13.14502385,"ECCENTRICITY":0.00019537,"INCLINATION":87.9003,"RA_OF_ASC_NODE":324.5573,"ARG_OF_PERICENTER":83.3198,"MEAN_ANOMALY":276.8154,"EPHEMERIS_TYPE":0,"CLASSIFICATION_TYPE":"U","NORAD_CAT_ID":49309,"ELEMENT_SET_NO":999,"REV_AT_EPOCH":20460,"BSTAR":-0.00069034632,"MEAN_MOTION_DOT":-2.43e-6,"MEAN_MOTION_DDOT":0},{"OBJECT_NAME":"ONEWEB-0384","OBJECT_ID":"2021-090AH","EPOCH":"2025-12-24T03:22:34.875552","MEAN_MOTION":13.20799476,"ECCENTRICITY":0.00022916,"INCLINATION":87.9229,"RA_OF_ASC_NODE":309.3829,"ARG_OF_PERICENTER":86.3702,"MEAN_ANOMALY":273.7694,"EPHEMERIS_TYPE":0,"CLASSIFICATION_TYPE":"U","NORAD_CAT_ID":49310,"ELEMENT_SET_NO":999,"REV_AT_EPOCH":20672,"BSTAR":-4.6395994e-5,"MEAN_MOTION_DOT":-6.0e-8,"MEAN_MOTION_DDOT":0},{"OBJECT_NAME":"ONEWEB-0385","OBJECT_ID":"2021-090AJ","EPOCH":"2025-12-24T06:59:14.243712","MEAN_MOTION":13.20771373,"ECCENTRICITY":0.00019323,"INCLINATION":87.9212,"RA_OF_ASC_NODE":309.3204,"ARG_OF_PERICENTER":83.5856,"MEAN_ANOMALY":276.5497,"EPHEMERIS_TYPE":0,"CLASSIFICATION_TYPE":"U","NORAD_CAT_ID":49311,"ELEMENT_SET_NO":999,"REV_AT_EPOCH":20671,"BSTAR":0.00039888569,"MEAN_MOTION_DOT":1.75e-6,"MEAN_MOTION_DDOT":0},{"OBJECT_NAME":"ONEWEB-0386","OBJECT_ID":"2021-090AK","EPOCH":"2025-12-24T03:46:03.671616","MEAN_MOTION":13.20771114,"ECCENTRICITY":0.00020382,"INCLINATION":87.9218,"RA_OF_ASC_NODE":309.3318,"ARG_OF_PERICENTER":83.6354,"MEAN_ANOMALY":276.5012,"EPHEMERIS_TYPE":0,"CLASSIFICATION_TYPE":"U","NORAD_CAT_ID":49312,"ELEMENT_SET_NO":999,"REV_AT_EPOCH":20671,"BSTAR":-0.00026338291,"MEAN_MOTION_DOT":-9.4e-7,"MEAN_MOTION_DDOT":0},{"OBJECT_NAME":"ONEWEB-0387","OBJECT_ID":"2021-090AL","EPOCH":"2025-12-24T03:23:20.062752","MEAN_MOTION":13.20771074,"ECCENTRICITY":0.00017201,"INCLINATION":87.9214,"RA_OF_ASC_NODE":309.3793,"ARG_OF_PERICENTER":88.9836,"MEAN_ANOMALY":271.1495,"EPHEMERIS_TYPE":0,"CLASSIFICATION_TYPE":"U","NORAD_CAT_ID":49313,"ELEMENT_SET_NO":999,"REV_AT_EPOCH":20671,"BSTAR":-1.4194092e-5,"MEAN_MOTION_DOT":7.0e-8,"MEAN_MOTION_DDOT":0},{"OBJECT_NAME":"ONEWEB-0388","OBJECT_ID":"2021-090AM","EPOCH":"2025-12-24T04:41:08.799072","MEAN_MOTION":13.19725124,"ECCENTRICITY":0.00019244,"INCLINATION":87.9202,"RA_OF_ASC_NODE":339.7935,"ARG_OF_PERICENTER":87.8283,"MEAN_ANOMALY":272.307,"EPHEMERIS_TYPE":0,"CLASSIFICATION_TYPE":"U","NORAD_CAT_ID":49314,"ELEMENT_SET_NO":999,"REV_AT_EPOCH":20333,"BSTAR":-8.760575e-5,"MEAN_MOTION_DOT":-2.2e-7,"MEAN_MOTION_DDOT":0},{"OBJECT_NAME":"ONEWEB-0389","OBJECT_ID":"2021-132A","EPOCH":"2025-12-24T03:58:49.345824","MEAN_MOTION":13.17649133,"ECCENTRICITY":0.00020092,"INCLINATION":87.91,"RA_OF_ASC_NODE":40.6698,"ARG_OF_PERICENTER":108.2273,"MEAN_ANOMALY":251.9077,"EPHEMERIS_TYPE":0,"CLASSIFICATION_TYPE":"U","NORAD_CAT_ID":50469,"ELEMENT_SET_NO":999,"REV_AT_EPOCH":19503,"BSTAR":-3.9880554e-5,"MEAN_MOTION_DOT":-3.0e-8,"MEAN_MOTION_DDOT":0},{"OBJECT_NAME":"ONEWEB-0390","OBJECT_ID":"2021-132B","EPOCH":"2025-12-24T04:01:14.261952","MEAN_MOTION":13.17650435,"ECCENTRICITY":0.00015155,"INCLINATION":87.9097,"RA_OF_ASC_NODE":40.6712,"ARG_OF_PERICENTER":101.0264,"MEAN_ANOMALY":259.1038,"EPHEMERIS_TYPE":0,"CLASSIFICATION_TYPE":"U","NORAD_CAT_ID":50470,"ELEMENT_SET_NO":999,"REV_AT_EPOCH":19503,"BSTAR":0.00014091713,"MEAN_MOTION_DOT":6.8e-7,"MEAN_MOTION_DDOT":0},{"OBJECT_NAME":"ONEWEB-0391","OBJECT_ID":"2021-132C","EPOCH":"2025-12-24T04:03:41.411520","MEAN_MOTION":13.17648438,"ECCENTRICITY":0.00019616,"INCLINATION":87.9096,"RA_OF_ASC_NODE":40.6802,"ARG_OF_PERICENTER":126.1261,"MEAN_ANOMALY":234.0053,"EPHEMERIS_TYPE":0,"CLASSIFICATION_TYPE":"U","NORAD_CAT_ID":50471,"ELEMENT_SET_NO":999,"REV_AT_EPOCH":19503,"BSTAR":6.5898614e-5,"MEAN_MOTION_DOT":3.8e-7,"MEAN_MOTION_DDOT":0},{"OBJECT_NAME":"ONEWEB-0392","OBJECT_ID":"2021-132D","EPOCH":"2025-12-24T02:58:03.938016","MEAN_MOTION":13.17650533,"ECCENTRICITY":0.00019511,"INCLINATION":87.9108,"RA_OF_ASC_NODE":40.6427,"ARG_OF_PERICENTER":110.1336,"MEAN_ANOMALY":250.0006,"EPHEMERIS_TYPE":0,"CLASSIFICATION_TYPE":"U","NORAD_CAT_ID":50472,"ELEMENT_SET_NO":999,"REV_AT_EPOCH":19506,"BSTAR":0.00013111239,"MEAN_MOTION_DOT":6.4e-7,"MEAN_MOTION_DDOT":0},{"OBJECT_NAME":"ONEWEB-0393","OBJECT_ID":"2021-132E","EPOCH":"2025-12-24T04:08:43.897920","MEAN_MOTION":13.17649695,"ECCENTRICITY":0.00018637,"INCLINATION":87.911,"RA_OF_ASC_NODE":40.6551,"ARG_OF_PERICENTER":105.0838,"MEAN_ANOMALY":255.05,"EPHEMERIS_TYPE":0,"CLASSIFICATION_TYPE":"U","NORAD_CAT_ID":50473,"ELEMENT_SET_NO":999,"REV_AT_EPOCH":19506,"BSTAR":8.0275683e-5,"MEAN_MOTION_DOT":4.4e-7,"MEAN_MOTION_DDOT":0}]
