ONEWEB-0378             
1 49304U 21090AB  25358.26129124  .00000087  00000+0  18124-3 0  9995
2 49304  87.9209 309.3369 0001913  83.2584 276.8767 13.20771443206692
ONEWEB-0379             
1 49305U 21090AC  25358.19531222  .00000080  00000+0  18250-3 0  9997
2 49305  87.9005 324.5712 0001903  82.5041 277.6305 13.14502365204577
ONEWEB-0380             
1 49306U 21090AD  25358.19997921 -.00000006  00000+0 -46658-4 0  9994
2 49306  87.9202 339.7925 0001796  92.6359 267.4980 13.19725132203349
ONEWEB-0381             
1 49307U 21090AE  25358.16014268  .00000017  00000+0  91738-5 0  9996
2 49307  87.9218 309.3458 0001910  85.4916 274.6435 13.20771488206725
ONEWEB-0382             
1 49308U 21090AF  25358.29902266  .00000478  00000+0  11426-2 0  9999
2 49308  87.9214 309.3143 0002136  85.8996 274.2381 13.20772292206737
ONEWEB-0383             
1 49309U 21090AG  25358.18895482 -.00000243  00000+0 -69035-3 0  9991
2 49309  87.9003 324.5573 0001953  83.3198 276.8154 13.14502385204600
ONEWEB-0384             
1 49310U 21090AH  25358.14068143 -.00000006  00000+0 -46396-4 0  9998
2 49310  87.9229 309.3829 0002291  86.3702 273.7694 13.20799476206723
ONEWEB-0385             
1 49311U 21090AJ  25358.29113708  .00000175  00000+0  39889-3 0  9996
2 49311  87.9212 309.3204 0001932  83.5856 276.5497 13.20771373206710
ONEWEB-0386             
1 49312U 21090AK  25358.15698694 -.00000094  00000+0 -26338-3 0  9991
2 49312  87.9218 309.3318 0002038  83.6354 276.5012 13.20771114206711
ONEWEB-0387             
1 49313U 21090AL  25358.14120443  .00000007  00000+0 -14194-4 0  9994
2 49313  87.9214 309.3793 0001720  88.9836 271.1495 13.20771074206716
ONEWEB-0388             
1 49314U 21090AM  25358.19524073 -.00000022  00000+0 -87606-4 0  9993
2 49314  87.9202 339.7935 0001924  87.8283 272.3070 13.19725124203339
ONEWEB-0389             
1 50469U 21132A   25358.16584891 -.00000003  00000+0 -39881-4 0  9995
2 50469  87.9100  40.6698 0002009 108.2273 251.9077 13.17649133195035
ONEWEB-0390             
1 50470U 21132B   25358.16752618  .00000068  00000+0  14092-3 0  9996
2 50470  87.9097  40.6712 0001515 101.0264 259.1038 13.17650435195035
ONEWEB-0391             
1 50471U 21132C   25358.16922930  .00000038  00000+0  65899-4 0  9992
2 50471  87.9096  40.6802 0001961 126.1261 234.0053 13.17648438195034
ONEWEB-0392             
1 50472U 21132D   25358.12365669  .00000064  00000+0  13111-3 0  9997
2 50472  87.9108  40.6427 0001951 110.1336 250.0006 13.17650533195065
ONEWEB-0393             
1 50473U 21132E   25358.17273030  .00000044  00000+0  80276-4 0  9998
2 50473  87.9110  40.6551 0001863 105.0838 255.0500 13.17649695195060
